SL-14 R/B               
1 21423U 91042B   26056.53551689  .00000434  00000+0  52008-4 0  9998
2 21423  82.4902 231.5811 0015562 282.2420  77.7051 14.81815059851271
ERS-1                   
1 21574U 91050A   26056.53286197  .00000302  00000+0  11149-3 0  9997
2 21574  98.7890  74.4618 0031057 237.2468 122.5725 14.39438296813982
ARIANE 40 R/B           
1 21610U 91050F   26056.75142263  .00000266  00000+0  91994-4 0  9993
2 21610  98.2039 109.4346 0004360 106.9669 253.2000 14.42883529817273
INTERCOSMOS 25          
1 21819U 91086A   26056.68686701  .00001398  00000+0  26794-3 0  9997
2 21819  82.6071 317.2618 1487101 142.7895 228.6248 12.11960003495231
SL-8 R/B                
1 21876U 92008B   26056.57145221  .00000014  00000+0 -13486-5 0  9991
2 21876  82.9234 276.7949 0034915 166.5141 221.8694 13.75969936707750
SL-8 R/B                
1 21938U 92020B   26056.40043451  .00000075  00000+0  61993-4 0  9999
2 21938  82.9344 162.8830 0028215 334.3958  92.4151 13.75547886699444
USA 81                  
1 21949U 92023A   26056.29396809  .00000169  00000+0  55038-4 0  9996
2 21949  85.0108 138.5903 0002745  88.4169 271.7338 14.32363236 93019
COSMOS 2219             
1 22219U 92076A   26056.42476904  .00000358  00000+0  21247-3 0  9999
2 22219  71.0599  43.7066 0019564 223.4156 136.5426 14.14084103716640
SL-16 R/B               
1 22220U 92076B   26056.85574332  .00000294  00000+0  17050-3 0  9998
2 22220  70.9988 213.3000 0010863 118.1319  44.5909 14.16857043720157
COSMOS 2221             
1 22236U 92080A   26056.59914639  .00001647  00000+0  14387-3 0  9992
2 22236  82.5028 290.6632 0013043 230.1120 129.8956 14.96147592778987
SL-16 R/B               
1 22285U 92093B   26056.37223584  .00000123  00000+0  87304-4 0  9996
2 22285  71.0228  30.1219 0005986 307.0148  53.0427 14.15449125711419
COSMOS 2228             
1 22286U 92094A   26056.75713590  .00001963  00000+0  16738-3 0  9996
2 22286  82.5145 248.7378 0017672 346.7619  13.3137 14.97122314774274
